{
  "type": "FeatureCollection",
  "features": [
    {
      "type": "Feature",
      "properties": {
        "norad_id": 34571,
        "name": "COSMOS 2251 DEB",
        "group": "cosmos-2251-debris",
        "lat": -11.429783370714203,
        "lon": -8.75464422350895,
        "alt_km": 687.2616633137686,
        "timestamp": "2025-12-20T11:30:28.770686+00:00",
        "meta_object_name": "COSMOS 2251 DEB",
        "meta_object_id": "1993-036VH",
        "meta_epoch": "2025-12-18T22:10:04.528128",
        "meta_mean_motion": 14.48905766,
        "meta_eccentricity": 0.0065409,
        "meta_inclination": 74.0384,
        "meta_ra_of_asc_node": 170.8432,
        "meta_arg_of_pericenter": 204.4185,
        "meta_mean_anomaly": 155.3874,
        "meta_ephemeris_type": 0,
        "meta_classification_type": "U",
        "meta_norad_cat_id": 34571,
        "meta_element_set_no": 999,
        "meta_rev_at_epoch": 87383,
        "meta_bstar": 0.0018317465,
        "meta_mean_motion_dot": 7.102e-05,
        "meta_mean_motion_ddot": 0,
        "tle_line1": "1 34571U 93036VH  25352.92366352  .00007102  00000+0  18317-2 0  9995",
        "tle_line2": "2 34571  74.0384 170.8432 0065409 204.4185 155.3874 14.48905766873833"
      },
      "geometry": {
        "type": "Point",
        "coordinates": [
          -8.75464422350895,
          -11.429783370714203
        ]
      }
    },
    {
      "type": "Feature",
      "properties": {
        "norad_id": 34572,
        "name": "COSMOS 2251 DEB",
        "group": "cosmos-2251-debris",
        "lat": 73.83527393658801,
        "lon": -177.48912166604129,
        "alt_km": 714.2066134568595,
        "timestamp": "2025-12-20T11:30:28.770696+00:00",
        "meta_object_name": "COSMOS 2251 DEB",
        "meta_object_id": "1993-036VJ",
        "meta_epoch": "2025-12-19T08:52:33.083040",
        "meta_mean_motion": 14.50137544,
        "meta_eccentricity": 0.0061983,
        "meta_inclination": 74.0111,
        "meta_ra_of_asc_node": 103.0332,
        "meta_arg_of_pericenter": 175.7717,
        "meta_mean_anomaly": 241.8877,
        "meta_ephemeris_type": 0,
        "meta_classification_type": "U",
        "meta_norad_cat_id": 34572,
        "meta_element_set_no": 999,
        "meta_rev_at_epoch": 87474,
        "meta_bstar": 0.0016719,
        "meta_mean_motion_dot": 6.633e-05,
        "meta_mean_motion_ddot": 0,
        "tle_line1": "1 34572U 93036VJ  25353.36982735  .00006633  00000+0  16719-2 0  9996",
        "tle_line2": "2 34572  74.0111 103.0332 0061983 175.7717 241.8877 14.50137544874742"
      },
      "geometry": {
        "type": "Point",
        "coordinates": [
          -177.48912166604129,
          73.83527393658801
        ]
      }
    },
    {
      "type": "Feature",
      "properties": {
        "norad_id": 34574,
        "name": "COSMOS 2251 DEB",
        "group": "cosmos-2251-debris",
        "lat": -8.079954270638732,
        "lon": -149.53581013725955,
        "alt_km": 699.4060098752107,
        "timestamp": "2025-12-20T11:30:28.770707+00:00",
        "meta_object_name": "COSMOS 2251 DEB",
        "meta_object_id": "1993-036VL",
        "meta_epoch": "2025-12-20T04:25:37.603200",
        "meta_mean_motion": 14.70677211,
        "meta_eccentricity": 0.0067108,
        "meta_inclination": 74.0681,
        "meta_ra_of_asc_node": 28.7114,
        "meta_arg_of_pericenter": 47.3992,
        "meta_mean_anomaly": 19.0044,
        "meta_ephemeris_type": 0,
        "meta_classification_type": "U",
        "meta_norad_cat_id": 34574,
        "meta_element_set_no": 999,
        "meta_rev_at_epoch": 88888,
        "meta_bstar": 0.0005534,
        "meta_mean_motion_dot": 3.459e-05,
        "meta_mean_motion_ddot": 0,
        "tle_line1": "1 34574U 93036VL  25354.18446300  .00003459  00000+0  55340-3 0  9999",
        "tle_line2": "2 34574  74.0681  28.7114 0067108  47.3992  19.0044 14.70677211888884"
      },
      "geometry": {
        "type": "Point",
        "coordinates": [
          -149.53581013725955,
          -8.079954270638732
        ]
      }
    },
    {
      "type": "Feature",
      "properties": {
        "norad_id": 34576,
        "name": "COSMOS 2251 DEB",
        "group": "cosmos-2251-debris",
        "lat": 73.43002323142346,
        "lon": -130.6553203125286,
        "alt_km": 706.0961724147637,
        "timestamp": "2025-12-20T11:30:28.770717+00:00",
        "meta_object_name": "COSMOS 2251 DEB",
        "meta_object_id": "1993-036VN",
        "meta_epoch": "2025-12-19T15:21:26.249760",
        "meta_mean_motion": 14.55469677,
        "meta_eccentricity": 0.0008223,
        "meta_inclination": 74.0343,
        "meta_ra_of_asc_node": 125.1243,
        "meta_arg_of_pericenter": 262.3221,
        "meta_mean_anomaly": 114.6335,
        "meta_ephemeris_type": 0,
        "meta_classification_type": "U",
        "meta_norad_cat_id": 34576,
        "meta_element_set_no": 999,
        "meta_rev_at_epoch": 88567,
        "meta_bstar": 0.00058339,
        "meta_mean_motion_dot": 2.511e-05,
        "meta_mean_motion_ddot": 0,
        "tle_line1": "1 34576U 93036VN  25353.63988715  .00002511  00000+0  58339-3 0  9990",
        "tle_line2": "2 34576  74.0343 125.1243 0008223 262.3221 114.6335 14.55469677885670"
      },
      "geometry": {
        "type": "Point",
        "coordinates": [
          -130.6553203125286,
          73.43002323142346
        ]
      }
    },
    {
      "type": "Feature",
      "properties": {
        "norad_id": 34579,
        "name": "COSMOS 2251 DEB",
        "group": "cosmos-2251-debris",
        "lat": 29.391719984043714,
        "lon": -141.24692726747224,
        "alt_km": 747.0421282808165,
        "timestamp": "2025-12-20T11:30:28.770727+00:00",
        "meta_object_name": "COSMOS 2251 DEB",
        "meta_object_id": "1993-036VR",
        "meta_epoch": "2025-12-20T00:19:30.840096",
        "meta_mean_motion": 14.45326726,
        "meta_eccentricity": 0.0027533,
        "meta_inclination": 74.0517,
        "meta_ra_of_asc_node": 210.3511,
        "meta_arg_of_pericenter": 277.9153,
        "meta_mean_anomaly": 209.157,
        "meta_ephemeris_type": 0,
        "meta_classification_type": "U",
        "meta_norad_cat_id": 34579,
        "meta_element_set_no": 999,
        "meta_rev_at_epoch": 88279,
        "meta_bstar": 0.0002639,
        "meta_mean_motion_dot": 9.04e-06,
        "meta_mean_motion_ddot": 0,
        "tle_line1": "1 34579U 93036VR  25354.01355139  .00000904  00000+0  26390-3 0  9990",
        "tle_line2": "2 34579  74.0517 210.3511 0027533 277.9153 209.1570 14.45326726882799"
      },
      "geometry": {
        "type": "Point",
        "coordinates": [
          -141.24692726747224,
          29.391719984043714
        ]
      }
    },
    {
      "type": "Feature",
      "properties": {
        "norad_id": 34582,
        "name": "COSMOS 2251 DEB",
        "group": "cosmos-2251-debris",
        "lat": -73.7000059146467,
        "lon": 179.48126383043055,
        "alt_km": 756.1247846410661,
        "timestamp": "2025-12-20T11:30:28.770737+00:00",
        "meta_object_name": "COSMOS 2251 DEB",
        "meta_object_id": "1993-036VU",
        "meta_epoch": "2025-12-20T03:35:24.025632",
        "meta_mean_motion": 14.43360763,
        "meta_eccentricity": 0.0048271,
        "meta_inclination": 74.0201,
        "meta_ra_of_asc_node": 258.5968,
        "meta_arg_of_pericenter": 7.1038,
        "meta_mean_anomaly": 353.0791,
        "meta_ephemeris_type": 0,
        "meta_classification_type": "U",
        "meta_norad_cat_id": 34582,
        "meta_element_set_no": 999,
        "meta_rev_at_epoch": 88054,
        "meta_bstar": 0.0005271,
        "meta_mean_motion_dot": 1.776e-05,
        "meta_mean_motion_ddot": 0,
        "tle_line1": "1 34582U 93036VU  25354.14958363  .00001776  00000+0  52710-3 0  9999",
        "tle_line2": "2 34582  74.0201 258.5968 0048271   7.1038 353.0791 14.43360763880542"
      },
      "geometry": {
        "type": "Point",
        "coordinates": [
          179.48126383043055,
          -73.7000059146467
        ]
      }
    },
    {
      "type": "Feature",
      "properties": {
        "norad_id": 34588,
        "name": "COSMOS 2251 DEB",
        "group": "cosmos-2251-debris",
        "lat": -63.05670254710792,
        "lon": -140.3440128106788,
        "alt_km": 745.2407237897278,
        "timestamp": "2025-12-20T11:30:28.770747+00:00",
        "meta_object_name": "COSMOS 2251 DEB",
        "meta_object_id": "1993-036WA",
        "meta_epoch": "2025-12-20T04:02:10.435776",
        "meta_mean_motion": 14.42041943,
        "meta_eccentricity": 0.0019279,
        "meta_inclination": 74.0429,
        "meta_ra_of_asc_node": 254.4907,
        "meta_arg_of_pericenter": 306.4154,
        "meta_mean_anomaly": 170.1426,
        "meta_ephemeris_type": 0,
        "meta_classification_type": "U",
        "meta_norad_cat_id": 34588,
        "meta_element_set_no": 999,
        "meta_rev_at_epoch": 88057,
        "meta_bstar": 0.00029792,
        "meta_mean_motion_dot": 9.54e-06,
        "meta_mean_motion_ddot": 0,
        "tle_line1": "1 34588U 93036WA  25354.16817634  .00000954  00000+0  29792-3 0  9993",
        "tle_line2": "2 34588  74.0429 254.4907 0019279 306.4154 170.1426 14.42041943880579"
      },
      "geometry": {
        "type": "Point",
        "coordinates": [
          -140.3440128106788,
          -63.05670254710792
        ]
      }
    }
  ]
}